{"fetched_at":"2026-03-30T13:17:50Z","count":15418,"tles":[{"name":"STARLINK-36117","line1":"1 66865U 25281T   26087.74546284  .00023969  00000+0  87689-3 0  9991","line2":"2 66865  42.9997 235.5243 0001713 265.3161  94.7495 15.27610431 19102","category":"Starlink"}]}